ONEWEB-0380             
1 49306U 21090AD  25318.32033439 -.00001203  00000+0 -30374-2 0  9996
2 49306  87.9217 347.7289 0001829  90.4195 269.7147 13.19733021198088
ONEWEB-0381             
1 49307U 21090AE  25318.00903950 -.00000015  00000+0 -69136-4 0  9996
2 49307  87.9177 317.3538 0001559  90.8769 269.2543 13.20773112201420
ONEWEB-0382             
1 49308U 21090AF  25317.46612279  .00000034  00000+0  52841-4 0  9991
2 49308  87.9188 317.4560 0001569  96.6326 263.4986 13.20772443201347
ONEWEB-0383             
1 49309U 21090AG  25318.07487684 -.00000444  00000+0 -12334-2 0  9998
2 49309  87.8999 332.5465 0001734  98.6362 261.4964 13.14503354199330
ONEWEB-0384             
1 49310U 21090AH  25317.38435485  .00000021  00000+0  19776-4 0  9993
2 49310  87.9199 317.5056 0001499 106.0137 254.1161 13.20797260201347
ONEWEB-0385             
1 49311U 21090AJ  25318.06426600 -.00000090  00000+0 -25337-3 0  9996
2 49311  87.9176 317.3442 0001674  93.0334 267.0991 13.20770914201407
ONEWEB-0386             
1 49312U 21090AK  25318.08163664 -.00000006  00000+0 -46246-4 0  9997
2 49312  87.9183 317.3220 0001643  97.4716 262.6605 13.20772976201423
ONEWEB-0387             
1 49313U 21090AL  25317.38405213  .00000072  00000+0  14419-3 0  9996
2 49313  87.9175 317.5100 0001565  82.5154 277.6157 13.20771875201333
ONEWEB-0388             
1 49314U 21090AM  25318.31559850  .00000018  00000+0  13540-4 0  9993
2 49314  87.9211 347.7334 0001729  98.6700 261.4629 13.19726726198070
ONEWEB-0389             
1 50469U 21132A   25318.29934427  .00000037  00000+0  62000-4 0  9993
2 50469  87.9138  48.6011 0001328 106.7949 253.3328 13.17648279189789
ONEWEB-0390             
1 50470U 21132B   25318.30103971  .00000063  00000+0  13004-3 0  9997
2 50470  87.9133  48.6049 0001726  92.4352 267.6977 13.17650576189789
ONEWEB-0391             
1 50471U 21132C   25318.30270862  .00000011  00000+0 -59007-5 0  9991
2 50471  87.9128  48.6147 0000909  88.0065 272.1171 13.17652389189788
ONEWEB-0392             
1 50472U 21132D   25318.25715726  .00000133  00000+0  30997-3 0  9998
2 50472  87.9137  48.5732 0001280 104.2144 255.9129 13.17648709189817
ONEWEB-0393             
1 50473U 21132E   25318.23030772 -.00000012  00000+0 -63756-4 0  9996
2 50473  87.9139  48.6002 0001523 103.5165 256.6136 13.17648771189800
ONEWEB-0394             
1 50474U 21132F   25318.21557863  .00000122  00000+0  27592-3 0  9997
2 50474  87.9212  18.1352 0001666 103.9825 256.1492 13.18688818193260
ONEWEB-0395             
1 50475U 21132G   25318.31532204 -.00000281  00000+0 -82736-3 0  9990
2 50475  87.8862  63.8662 0001516  93.9014 266.2287 13.11414302187551
ONEWEB-0396             
1 50476U 21132H   25318.20898992  .00000064  00000+0  13043-3 0  9990
2 50476  87.9215  18.1490 0001676 102.0048 258.1272 13.18688100193303
