[{"OBJECT_NAME":"ONEWEB-0380","OBJECT_ID":"2021-090AD","EPOCH":"2025-11-14T07:41:16.891296","MEAN_MOTION":13.19733021,"ECCENTRICITY":0.0001829,"INCLINATION":87.9217,"RA_OF_ASC_NODE":347.7289,"ARG_OF_PERICENTER":90.4195,"MEAN_ANOMALY":269.7147,"EPHEMERIS_TYPE":0,"CLASSIFICATION_TYPE":"U","NORAD_CAT_ID":49306,"ELEMENT_SET_NO":999,"REV_AT_EPOCH":19808,"BSTAR":-0.0030374473,"MEAN_MOTION_DOT":-1.203e-5,"MEAN_MOTION_DDOT":0},{"OBJECT_NAME":"ONEWEB-0381","OBJECT_ID":"2021-090AE","EPOCH":"2025-11-14T00:13:01.012800","MEAN_MOTION":13.20773112,"ECCENTRICITY":0.00015596,"INCLINATION":87.9177,"RA_OF_ASC_NODE":317.3538,"ARG_OF_PERICENTER":90.8769,"MEAN_ANOMALY":269.2543,"EPHEMERIS_TYPE":0,"CLASSIFICATION_TYPE":"U","NORAD_CAT_ID":49307,"ELEMENT_SET_NO":999,"REV_AT_EPOCH":20142,"BSTAR":-6.9135746e-5,"MEAN_MOTION_DOT":-1.5e-7,"MEAN_MOTION_DDOT":0},{"OBJECT_NAME":"ONEWEB-0382","OBJECT_ID":"2021-090AF","EPOCH":"2025-11-13T11:11:13.009056","MEAN_MOTION":13.20772443,"ECCENTRICITY":0.0001569,"INCLINATION":87.9188,"RA_OF_ASC_NODE":317.456,"ARG_OF_PERICENTER":96.6326,"MEAN_ANOMALY":263.4986,"EPHEMERIS_TYPE":0,"CLASSIFICATION_TYPE":"U","NORAD_CAT_ID":49308,"ELEMENT_SET_NO":999,"REV_AT_EPOCH":20134,"BSTAR":5.2841e-5,"MEAN_MOTION_DOT":3.4e-7,"MEAN_MOTION_DDOT":0},{"OBJECT_NAME":"ONEWEB-0383","OBJECT_ID":"2021-090AG","EPOCH":"2025-11-14T01:47:49.358976","MEAN_MOTION":13.14503354,"ECCENTRICITY":0.00017343,"INCLINATION":87.8999,"RA_OF_ASC_NODE":332.5465,"ARG_OF_PERICENTER":98.6362,"MEAN_ANOMALY":261.4964,"EPHEMERIS_TYPE":0,"CLASSIFICATION_TYPE":"U","NORAD_CAT_ID":49309,"ELEMENT_SET_NO":999,"REV_AT_EPOCH":19933,"BSTAR":-0.0012333772,"MEAN_MOTION_DOT":-4.44e-6,"MEAN_MOTION_DDOT":0},{"OBJECT_NAME":"ONEWEB-0384","OBJECT_ID":"2021-090AH","EPOCH":"2025-11-13T09:13:28.259040","MEAN_MOTION":13.2079726,"ECCENTRICITY":0.0001499,"INCLINATION":87.9199,"RA_OF_ASC_NODE":317.5056,"ARG_OF_PERICENTER":106.0137,"MEAN_ANOMALY":254.1161,"EPHEMERIS_TYPE":0,"CLASSIFICATION_TYPE":"U","NORAD_CAT_ID":49310,"ELEMENT_SET_NO":999,"REV_AT_EPOCH":20134,"BSTAR":1.9776e-5,"MEAN_MOTION_DOT":2.1e-7,"MEAN_MOTION_DDOT":0},{"OBJECT_NAME":"ONEWEB-0385","OBJECT_ID":"2021-090AJ","EPOCH":"2025-11-14T01:32:32.582400","MEAN_MOTION":13.20770914,"ECCENTRICITY":0.00016744,"INCLINATION":87.9176,"RA_OF_ASC_NODE":317.3442,"ARG_OF_PERICENTER":93.0334,"MEAN_ANOMALY":267.0991,"EPHEMERIS_TYPE":0,"CLASSIFICATION_TYPE":"U","NORAD_CAT_ID":49311,"ELEMENT_SET_NO":999,"REV_AT_EPOCH":20140,"BSTAR":-0.00025336531,"MEAN_MOTION_DOT":-9.0e-7,"MEAN_MOTION_DDOT":0},{"OBJECT_NAME":"ONEWEB-0386","OBJECT_ID":"2021-090AK","EPOCH":"2025-11-14T01:57:33.405696","MEAN_MOTION":13.20772976,"ECCENTRICITY":0.00016435,"INCLINATION":87.9183,"RA_OF_ASC_NODE":317.322,"ARG_OF_PERICENTER":97.4716,"MEAN_ANOMALY":262.6605,"EPHEMERIS_TYPE":0,"CLASSIFICATION_TYPE":"U","NORAD_CAT_ID":49312,"ELEMENT_SET_NO":999,"REV_AT_EPOCH":20142,"BSTAR":-4.6245733e-5,"MEAN_MOTION_DOT":-6.0e-8,"MEAN_MOTION_DDOT":0},{"OBJECT_NAME":"ONEWEB-0387","OBJECT_ID":"2021-090AL","EPOCH":"2025-11-13T09:13:02.104032","MEAN_MOTION":13.20771875,"ECCENTRICITY":0.0001565,"INCLINATION":87.9175,"RA_OF_ASC_NODE":317.51,"ARG_OF_PERICENTER":82.5154,"MEAN_ANOMALY":277.6157,"EPHEMERIS_TYPE":0,"CLASSIFICATION_TYPE":"U","NORAD_CAT_ID":49313,"ELEMENT_SET_NO":999,"REV_AT_EPOCH":20133,"BSTAR":0.00014419,"MEAN_MOTION_DOT":7.2e-7,"MEAN_MOTION_DDOT":0},{"OBJECT_NAME":"ONEWEB-0388","OBJECT_ID":"2021-090AM","EPOCH":"2025-11-14T07:34:27.710400","MEAN_MOTION":13.19726726,"ECCENTRICITY":0.00017294,"INCLINATION":87.9211,"RA_OF_ASC_NODE":347.7334,"ARG_OF_PERICENTER":98.67,"MEAN_ANOMALY":261.4629,"EPHEMERIS_TYPE":0,"CLASSIFICATION_TYPE":"U","NORAD_CAT_ID":49314,"ELEMENT_SET_NO":999,"REV_AT_EPOCH":19807,"BSTAR":1.3540412e-5,"MEAN_MOTION_DOT":1.8e-7,"MEAN_MOTION_DDOT":0},{"OBJECT_NAME":"ONEWEB-0389","OBJECT_ID":"2021-132A","EPOCH":"2025-11-14T07:11:03.344928","MEAN_MOTION":13.17648279,"ECCENTRICITY":0.00013283,"INCLINATION":87.9138,"RA_OF_ASC_NODE":48.6011,"ARG_OF_PERICENTER":106.7949,"MEAN_ANOMALY":253.3328,"EPHEMERIS_TYPE":0,"CLASSIFICATION_TYPE":"U","NORAD_CAT_ID":50469,"ELEMENT_SET_NO":999,"REV_AT_EPOCH":18978,"BSTAR":6.2000163e-5,"MEAN_MOTION_DOT":3.7e-7,"MEAN_MOTION_DDOT":0},{"OBJECT_NAME":"ONEWEB-0390","OBJECT_ID":"2021-132B","EPOCH":"2025-11-14T07:13:29.830944","MEAN_MOTION":13.17650576,"ECCENTRICITY":0.0001726,"INCLINATION":87.9133,"RA_OF_ASC_NODE":48.6049,"ARG_OF_PERICENTER":92.4352,"MEAN_ANOMALY":267.6977,"EPHEMERIS_TYPE":0,"CLASSIFICATION_TYPE":"U","NORAD_CAT_ID":50470,"ELEMENT_SET_NO":999,"REV_AT_EPOCH":18978,"BSTAR":0.00013004484,"MEAN_MOTION_DOT":6.3e-7,"MEAN_MOTION_DDOT":0},{"OBJECT_NAME":"ONEWEB-0391","OBJECT_ID":"2021-132C","EPOCH":"2025-11-14T07:15:54.024768","MEAN_MOTION":13.17652389,"ECCENTRICITY":9.095e-5,"INCLINATION":87.9128,"RA_OF_ASC_NODE":48.6147,"ARG_OF_PERICENTER":88.0065,"MEAN_ANOMALY":272.1171,"EPHEMERIS_TYPE":0,"CLASSIFICATION_TYPE":"U","NORAD_CAT_ID":50471,"ELEMENT_SET_NO":999,"REV_AT_EPOCH":18978,"BSTAR":-5.900694e-6,"MEAN_MOTION_DOT":1.1e-7,"MEAN_MOTION_DDOT":0},{"OBJECT_NAME":"ONEWEB-0392","OBJECT_ID":"2021-132D","EPOCH":"2025-11-14T06:10:18.387264","MEAN_MOTION":13.17648709,"ECCENTRICITY":0.00012807,"INCLINATION":87.9137,"RA_OF_ASC_NODE":48.5732,"ARG_OF_PERICENTER":104.2144,"MEAN_ANOMALY":255.9129,"EPHEMERIS_TYPE":0,"CLASSIFICATION_TYPE":"U","NORAD_CAT_ID":50472,"ELEMENT_SET_NO":999,"REV_AT_EPOCH":18981,"BSTAR":0.00030997006,"MEAN_MOTION_DOT":1.33e-6,"MEAN_MOTION_DDOT":0},{"OBJECT_NAME":"ONEWEB-0393","OBJECT_ID":"2021-132E","EPOCH":"2025-11-14T05:31:38.587008","MEAN_MOTION":13.17648771,"ECCENTRICITY":0.0001523,"INCLINATION":87.9139,"RA_OF_ASC_NODE":48.6002,"ARG_OF_PERICENTER":103.5165,"MEAN_ANOMALY":256.6136,"EPHEMERIS_TYPE":0,"CLASSIFICATION_TYPE":"U","NORAD_CAT_ID":50473,"ELEMENT_SET_NO":999,"REV_AT_EPOCH":18980,"BSTAR":-6.3756439e-5,"MEAN_MOTION_DOT":-1.2e-7,"MEAN_MOTION_DDOT":0},{"OBJECT_NAME":"ONEWEB-0394","OBJECT_ID":"2021-132F","EPOCH":"2025-11-14T05:10:25.993632","MEAN_MOTION":13.18688818,"ECCENTRICITY":0.0001666,"INCLINATION":87.9212,"RA_OF_ASC_NODE":18.1352,"ARG_OF_PERICENTER":103.9825,"MEAN_ANOMALY":256.1492,"EPHEMERIS_TYPE":0,"CLASSIFICATION_TYPE":"U","NORAD_CAT_ID":50474,"ELEMENT_SET_NO":999,"REV_AT_EPOCH":19326,"BSTAR":0.00027592239,"MEAN_MOTION_DOT":1.22e-6,"MEAN_MOTION_DDOT":0},{"OBJECT_NAME":"ONEWEB-0395","OBJECT_ID":"2021-132G","EPOCH":"2025-11-14T07:34:03.824256","MEAN_MOTION":13.11414302,"ECCENTRICITY":0.0001516,"INCLINATION":87.8862,"RA_OF_ASC_NODE":63.8662,"ARG_OF_PERICENTER":93.9014,"MEAN_ANOMALY":266.2287,"EPHEMERIS_TYPE":0,"CLASSIFICATION_TYPE":"U","NORAD_CAT_ID":50475,"ELEMENT_SET_NO":999,"REV_AT_EPOCH":18755,"BSTAR":-0.00082735689,"MEAN_MOTION_DOT":-2.81e-6,"MEAN_MOTION_DDOT":0},{"OBJECT_NAME":"ONEWEB-0396","OBJECT_ID":"2021-132H","EPOCH":"2025-11-14T05:00:56.729088","MEAN_MOTION":13.186881,"ECCENTRICITY":0.00016769,"INCLINATION":87.9215,"RA_OF_ASC_NODE":18.149,"ARG_OF_PERICENTER":102.0048,"MEAN_ANOMALY":258.1272,"EPHEMERIS_TYPE":0,"CLASSIFICATION_TYPE":"U","NORAD_CAT_ID":50476,"ELEMENT_SET_NO":999,"REV_AT_EPOCH":19330,"BSTAR":0.00013042601,"MEAN_MOTION_DOT":6.4e-7,"MEAN_MOTION_DDOT":0}]
